BEIDOU-2 IGSO-5         
1 37948U 11073A   26183.72937883 -.00000128  00000+0  00000+0 0  9990
2 37948  47.6496 271.3544 0114527 222.0502 141.5350  1.00270596 53296
LUCH-5A                 
1 37951U 11074B   26195.62980606 -.00000063  00000+0  00000+0 0  9996
2 37951   8.8213  73.4026 0002603  60.6892 192.1111  1.00272985 53326
BEIDOU-2 G5             
1 38091U 12008A   26196.17266953  .00000046  00000+0  00000+0 0  9993
2 38091   3.6409  69.5133 0007309 268.5041  75.8268  1.00270198 52648
BEIDOU-2 M3             
1 38250U 12018A   26194.49964644 -.00000069  00000+0  00000+0 0  9992
2 38250  55.7337 303.9888 0020987 272.3154  87.4648  1.86229839 96436
BEIDOU-2 M4             
1 38251U 12018B   26194.96895145 -.00000068  00000+0  00000+0 0  9993
2 38251  55.6326 303.1845 0012305 272.1181  87.7646  1.86229381 96446
SES-5                   
1 38652U 12036A   26196.13031456  .00000024  00000+0  00000+0 0  9997
2 38652   0.0466 319.8784 0001927 153.2847 231.7074  1.00271190 44734
BEIDOU-2 M6             
1 38775U 12050B   26193.06769869 -.00000042  00000+0  00000+0 0  9995
2 38775  56.5659  62.0719 0012986   1.2706 358.8013  1.86230839 93779
GSAT-10                 
1 38779U 12051B   26196.14582799 -.00000174  00000+0  00000+0 0  9993
2 38779   0.0916 264.7182 0007383 189.4249 334.3363  1.00272765 50370
NAVSTAR 67 (USA 239)    
1 38833U 12053A   26195.73730406  .00000002  00000+0  00000+0 0  9999
2 38833  53.5896 142.4706 0181993  66.2134 295.6400  2.00567894 99993
GSAT0103 (GALILEO-FM3)  
1 38857U 12055A   26194.28553299 -.00000030  00000+0  00000+0 0  9991
2 38857  55.8215 100.8292 0003756 311.8113  48.1723  1.70473329 85453
BEIDOU-2 G6             
1 38953U 12059A   26196.07470796 -.00000188  00000+0  00000+0 0  9995
2 38953   4.4894  73.2146 0008740 327.1436   3.4461  1.00273781 50188
LUCH-5B                 
1 38977U 12061A   26195.91433595 -.00000151  00000+0  00000+0 0  9992
2 38977  10.5410  49.6005 0003887 146.7257  49.3291  1.00270327 49888
COSMOS 2485 [GLONASS-M] 
1 39155U 13019A   26195.59633438 -.00000008  00000+0  00000+0 0  9998
2 39155  65.4348  72.6854 0022679 231.1740 128.6989  2.13103196102867
NAVSTAR 68 (USA 242)    
1 39166U 13023A   26195.60504784  .00000001  00000+0  00000+0 0  9990
2 39166  54.4832 267.8556 0141389  51.1130 310.2190  2.00563302 96438
IRNSS-1A                
1 39199U 13034A   26191.72043649  .00000047  00000+0  00000+0 0  9995
2 39199  35.7704  63.5328 0017567 183.4462 356.2994  1.00281941 47601
NAVSTAR 69 (USA 248)    
1 39533U 14008A   26195.10826862  .00000006  00000+0  00000+0 0  9996
2 39533  53.6576 148.2217 0084100 231.5400 127.6603  2.00561465 90227
ASTRA 5B                
1 39617U 14011B   26196.13404125  .00000127  00000+0  00000+0 0  9995
2 39617   0.0770 301.8806 0001849 178.8437 243.9961  1.00267986 44942
COSMOS 2492 [GLONASS-M] 
1 39620U 14012A   26195.55517264 -.00000062  00000+0  00000+0 0  9993
2 39620  65.2800 313.0063 0010317 317.7978  42.1326  2.13103210 95828
IRNSS-1B                
1 39635U 14017A   26195.71238846  .00000134  00000+0  00000+0 0  9997
2 39635  28.8764 239.9282 0022292 191.6992 172.5370  1.00275623 45079
LUCH-5V                 
1 39727U 14023A   26196.12317065 -.00000281  00000+0  00000+0 0  9997
2 39727   5.1992  69.4461 0002073  85.1988 277.3885  1.00273643 44641
NAVSTAR 70 (USA 251)    
1 39741U 14026A   26195.88290809 -.00000094  00000+0  00000+0 0  9996
2 39741  56.4834 330.4396 0038139 325.7860  33.9640  2.00558861 89095
COSMOS 2500 [GLONASS-M] 
1 40001U 14032A   26195.72458345 -.00000061  00000+0  00000+0 0  9992
2 40001  65.2151 312.7456 0008251 190.1379 169.8565  2.13105816 94045
NAVSTAR 71 (USA 256)    
1 40105U 14045A   26195.97463323 -.00000025  00000+0  00000+0 0  9990
2 40105  55.3710  87.3578 0034406 118.3743 242.0239  2.00560212 86638
GSAT0201 (GALILEO 5)    
1 40128U 14050A   26195.36620015 -.00000022  00000+0  00000+0 0  9994
2 40128  48.8449 272.3205 1678497 180.4860 179.3935  1.85519396 78823
GSAT0202 (GALILEO 6)    
1 40129U 14050B   26195.08266193 -.00000018  00000+0  00000+0 0  9992
2 40129  48.8629 271.4179 1679589 181.1559 178.4672  1.85520425 80983
IRNSS-1C                
1 40269U 14061A   26195.70643862 -.00000175  00000+0  00000+0 0  9994
2 40269   6.5853  88.4083 0022094   5.4026 176.1158  1.00272415 42967
NAVSTAR 72 (USA 258)    
1 40294U 14068A   26195.84288500 -.00000065  00000+0  00000+0 0  9996
2 40294  57.0066  29.8902 0067416  72.2774 288.5066  2.00553166 85767
COSMOS 2501 [GLONASS-K] 
1 40315U 14075A   26195.04843601  .00000065  00000+0  00000+0 0  9998
2 40315  63.6185 189.4424 0022586 212.6579 147.2095  2.13101105 90428
NAVSTAR 73 (USA 260)    
1 40534U 15013A   26194.98718971  .00000063  00000+0  00000+0 0  9995
2 40534  53.1661 203.0692 0110305  40.3694 320.4736  2.00549700 82369
GSAT0203 (GALILEO 7)    
1 40544U 15017A   26195.19559149 -.00000097  00000+0  00000+0 0  9992
2 40544  56.7773 340.8603 0002610 256.3881 103.5685  1.70476147 69662
GSAT0204 (GALILEO 8)    
1 40545U 15017B   26194.86487460 -.00000096  00000+0  00000+0 0  9991
2 40545  56.7839 340.8880 0002751 234.6933 125.2671  1.70475628 32700
